# From MPEC 2022-S20
C/1995 O1 (Hale-Bopp),e,89.3115,282.6833,130.4107,176.9389,0.0004188,0.99496865,0.0000,03/29.6232/1997,2000,g -2.0,4.0
# From NK 1615
P/1996 R2 (Lagerkvist),e,2.6010,40.0085,333.3954,3.774590,0.1344000,0.31457254,181.5816,10/26.0/2022,2000,g 11.5,4.0
# From MPC 75703
P/1998 VS24 (LINEAR),e,5.0265,159.0391,244.6262,4.525380,0.1023815,0.24315384,178.1321,10/26.0/2022,2000,g 13.0,2.0
# From NK 731
P/1999 RO28 (LONEOS),e,7.5656,137.8715,231.2982,3.426497,0.1553919,0.67252548,189.1152,10/26.0/2022,2000,g 20.0,2.0
# From MPC 75704
P/1999 XN120 (Catalina),e,5.0298,285.2963,161.6869,4.179005,0.1153705,0.21040528,226.8391,10/26.0/2022,2000,g 13.5,2.0
# From NK 744
P/2000 R2 (LINEAR),e,11.6866,160.2856,176.5888,3.467675,0.1526323,0.53142042,187.1494,10/26.0/2022,2000,g 18.0,4.0
# From MPC 43019
P/2001 H5 (NEAT),e,8.3670,328.6841,224.7370,6.095942,0.0654852,0.59820483,168.2428,10/26.0/2022,2000,g 12.0,4.0
# From MPC 75704
P/2001 Q6 (NEAT),e,56.9115,22.1849,42.9384,7.958723,0.0438974,0.82335302,338.4731,10/26.0/2022,2000,g 13.5,4.0
# From MPC 47727
P/2002 EJ57 (LINEAR),e,4.9776,330.3076,167.2881,6.463407,0.0599807,0.59239323,95.4679,10/26.0/2022,2000,g 12.5,4.0
# From MPC109588
P/2002 T6 (NEAT-LINEAR),e,10.8522,206.0672,219.5469,7.730298,0.0458574,0.56253028,330.9796,10/26.0/2022,2000,g 10.5,4.0
# From MPC 75007
C/2002 VQ94 (LINEAR),e,70.6914,35.1411,99.9816,184.2995,0.0003939,0.96306799,2.4081,10/26.0/2022,2000,g  9.5,2.0
# From MPC 50354
P/2003 F2 (NEAT),e,11.6113,358.9934,192.2622,6.501903,0.0594488,0.54138497,64.1357,10/26.0/2022,2000,g 16.5,2.0
# From MPC 50139
P/2003 QX29 (NEAT),e,11.3934,264.5147,37.6623,8.015789,0.0434295,0.47255040,315.8961,10/26.0/2022,2000,g  8.5,4.0
# From MPC105235
P/2003 T12 (SOHO),e,11.0225,174.5859,219.7497,2.585442,0.2370838,0.77014226,213.7834,10/26.0/2022,2000,g 17.0,4.0
# From MPEC 2022-TA6
P/2004 A1 (LONEOS),e,10.5517,124.8582,21.1028,7.971104,0.0437952,0.31012487,292.3383,10/26.0/2022,2000,g  6.5,4.0
# From MPC 54558
P/2004 DO29 (Spacewatch-LINEAR),e,14.5311,147.3768,40.5083,7.295755,0.0500148,0.44128194,330.6540,10/26.0/2022,2000,g 13.5,2.0
# From MPC 54823
P/2004 FY140 (LINEAR),e,2.1348,326.7803,242.1070,4.906922,0.0906756,0.16786040,241.0392,10/26.0/2022,2000,g 12.5,2.0
# From MPC 53304
P/2004 R3 (LINEAR-NEAT),e,12.7819,305.3195,37.6803,4.764011,0.0947862,0.25566909,37.9630,10/26.0/2022,2000,g 14.5,4.0
# From MPC 55521
P/2004 V3 (Siding Spring),e,50.4438,356.1295,322.4869,7.129916,0.0517699,0.44592782,339.6514,10/26.0/2022,2000,g 11.5,4.0
# From MPC 75705
P/2004 V5 (LINEAR-Hill),e,19.3431,47.7824,87.5662,7.989917,0.0436406,0.44476583,283.4986,10/26.0/2022,2000,g  8.0,4.0
# From MPC 54164
P/2005 E1 (Tubbiolo),e,4.2631,335.5757,193.8881,7.050408,0.0526481,0.37558608,342.2393,10/26.0/2022,2000,g 10.0,4.0
# From MPC 79019
P/2005 J1 (McNaught),e,31.7390,268.8281,338.9294,3.571903,0.1460006,0.56902187,215.4475,10/26.0/2022,2000,g 16.5,4.0
# From MPC 74246
P/2005 L1 (McNaught),e,7.7287,138.2216,150.0893,3.990892,0.1236230,0.21238262,43.9219,10/26.0/2022,2000,g  9.5,4.0
# From MPC 75706
P/2005 S2 (Skiff),e,3.1356,161.2228,229.4266,8.005070,0.0435167,0.19854785,261.0147,10/26.0/2022,2000,g  7.5,4.0
# From MPC 75706
P/2005 SB216 (LONEOS),e,24.1141,1.1238,83.2445,7.145526,0.0516004,0.46463311,299.2362,10/26.0/2022,2000,g 12.0,2.0
# From MPC 73461
P/2005 T3 (Read),e,6.2238,27.6684,6.6806,7.588372,0.0471499,0.17537096,294.5338,10/26.0/2022,2000,g  9.0,4.0
# From MPC 73461
P/2005 T4 (SWAN),e,160.2680,25.9159,41.8341,9.359070,0.0344235,0.92978258,214.3322,10/26.0/2022,2000,g 15.0,4.0
# From MPC 75706
P/2005 T5 (Broughton),e,21.3789,57.0011,304.6921,7.280580,0.0501713,0.55265802,311.7234,10/26.0/2022,2000,g 11.0,4.0
# From MPC 75707
P/2006 HR30 (Siding Spring),e,31.8602,309.8333,117.3770,7.808759,0.0451680,0.84310646,261.7453,10/26.0/2022,2000,g 11.0,4.0
# From MPEC 2022-TA7
P/2007 A2 (Christensen),e,26.4830,300.9126,186.6923,6.336360,0.0617937,0.55834932,357.9907,10/26.0/2022,2000,g 13.5,4.0
# From MPC 75707
P/2007 C2 (Catalina),e,8.6071,275.3000,180.1725,6.999143,0.0532276,0.47212222,293.7760,10/26.0/2022,2000,g 10.0,4.0
# From MPC 84315
C/2007 D1 (LINEAR),e,41.5016,171.2320,339.7993,1192,0.0000240,0.99262720,0.0000,06/07.1782/2007,2000,g  3.5,4.0
# From MPC 82314
P/2007 K2 (Gibbs),e,7.6275,188.6345,347.3486,7.275881,0.0502199,0.68311672,283.3604,10/26.0/2022,2000,g 14.0,4.0
# From MPC 60925
P/2007 Q2 (Gilmore),e,10.2027,172.1531,162.8538,5.657472,0.0732437,0.67001814,51.1269,10/26.0/2022,2000,g 16.0,4.0
# From MPC 73462
P/2007 S1 (Zhao),e,5.9610,141.3516,245.2137,3.820635,0.1319777,0.33917435,2.5235,10/26.0/2022,2000,g 13.0,4.0
# From MPC 61994
P/2007 T2 (Kowalski),e,9.7521,3.3772,359.6648,3.045615,0.1854349,0.78567743,288.1256,10/26.0/2022,2000,g 18.5,4.0
# From MPC 75709
P/2008 L2 (Hill),e,25.8682,218.0175,141.2630,6.027923,0.0665967,0.61347146,346.8765,10/26.0/2022,2000,g 12.5,4.0
# From MPC 64114
P/2008 O3 (Boattini),e,32.3318,47.5639,341.1680,8.215407,0.0418563,0.69636840,220.1387,10/26.0/2022,2000,g 13.0,4.0
# From MPC 75710
P/2008 Y3 (McNaught),e,38.7790,262.8574,238.0423,8.047599,0.0431722,0.44586525,218.5879,10/26.0/2022,2000,g  8.5,4.0
# From MPC 75710
P/2009 B1 (Boattini),e,22.2358,297.0747,128.9020,6.737063,0.0563635,0.63561204,284.2628,10/26.0/2022,2000,g 13.0,4.0
# From MPC 66466
C/2009 G1 (STEREO),e,108.5086,120.5601,175.5091,465.4681,0.0000981,0.99755216,0.0000,04/18.3733/2009,2000,g  9.0,4.0
# From MPC 75710
P/2009 O3 (Hill),e,16.2888,183.6850,154.4905,7.766941,0.0455333,0.68776334,223.0097,10/26.0/2022,2000,g 12.5,4.0
# From MPC 68902
P/2009 Q5 (McNaught),e,40.9845,160.2738,209.1075,7.429786,0.0486676,0.60984325,233.1043,10/26.0/2022,2000,g 10.0,4.0
# From MPC112389
P/2009 T2 (La Sagra),e,27.6055,215.8990,216.3255,7.718600,0.0459617,0.76644285,215.2146,10/26.0/2022,2000,g 14.0,4.0
# From MPC105235
P/2009 WX51 (Catalina),e,9.5947,31.5651,118.2620,3.082789,0.1820909,0.73939785,129.1294,10/26.0/2022,2000,g 19.0,2.0
# From MPC 74247
P/2009 Y2 (Kowalski),e,29.9619,262.0427,172.1340,6.549587,0.0588008,0.63677553,271.8971,10/26.0/2022,2000,g 13.0,4.0
# From MPC 75711
P/2010 A3 (Hill),e,14.8156,63.6317,42.2843,6.086725,0.0656339,0.73374160,303.0408,10/26.0/2022,2000,g 14.0,4.0
# From MPC 75008
P/2010 C1 (Scotti),e,9.1254,141.8704,3.3675,7.105291,0.0520393,0.26048067,246.8886,10/26.0/2022,2000,g  9.5,4.0
# From MPC 75008
P/2010 D2 (WISE),e,57.0986,319.8832,119.9312,6.721242,0.0565627,0.45143028,262.8381,10/26.0/2022,2000,g 16.0,4.0
# From MPC 75009
P/2010 E2 (Jarnac),e,15.3850,177.8200,8.3012,8.640230,0.0388075,0.71943108,178.4810,10/26.0/2022,2000,g 14.0,4.0
# From MPC 72851
P/2010 H2 (Vales),e,14.2790,64.1865,128.0168,3.832098,0.1313860,0.19663948,246.2186,10/26.0/2022,2000,g  6.0,4.0
# From MPC 70361
P/2010 H3 (SOHO),e,23.0822,77.1038,26.1374,3.036268,0.1862918,0.98538011,0.0000,02/07.8633/2021,2000,g 20.0,2.0
# From MPC 73463
P/2010 H4 (Scotti),e,2.3178,44.7255,179.3132,6.600304,0.0581244,0.26615940,263.0069,10/26.0/2022,2000,g 10.5,4.0
# From MPC 74637
P/2010 H5 (Scotti),e,14.0571,24.7931,174.7319,7.170983,0.0513258,0.15251581,236.3958,10/26.0/2022,2000,g 13.0,2.0
# From MPC 98558
P/2010 J3 (McMillan),e,13.2647,106.4682,157.5772,8.980326,0.0366240,0.72555386,162.7886,10/26.0/2022,2000,g 11.0,4.0
# From MPC 84315
P/2010 JC81 (WISE),e,38.8224,30.8687,12.4280,8.105842,0.0427078,0.77789969,179.4579,10/26.0/2022,2000,g  9.0,4.0
# From MPC 74248
P/2010 T2 (PANSTARRS),e,7.8878,58.5395,352.6270,5.571912,0.0749372,0.32363601,322.0381,10/26.0/2022,2000,g 11.5,4.0
# From MPC 98558
P/2010 TO20 (LINEAR-Grauer),e,2.4787,43.2840,267.5088,5.833095,0.0699609,0.05566303,357.6542,10/26.0/2022,2000,g  9.0,4.0
# From MPC 82316
P/2010 U1 (Boattini),e,8.2204,280.6796,86.2596,6.501578,0.0594533,0.24914225,276.1151,10/26.0/2022,2000,g  9.5,4.0
# From MPEC 2022-OB6
C/2010 U3 (Boattini),e,55.5551,42.9943,88.0393,2573,0.0000076,0.99671986,0.0000,02/25.2865/2019,2000,g  1.0,4.0
# From MPC 79021
P/2010 UH55 (Spacewatch),e,8.0382,232.9042,225.1447,6.654608,0.0574143,0.56373676,242.4202,10/26.0/2022,2000,g 11.0,4.0
# From MPC 75009
P/2010 WK (LINEAR),e,11.4016,11.3335,40.9816,5.762289,0.0712544,0.69050243,314.7963,10/26.0/2022,2000,g 14.5,2.0
# From MPC 84021
P/2011 C2 (Gibbs),e,10.8874,12.1202,160.5005,7.412566,0.0488373,0.26916419,193.6819,10/26.0/2022,2000,g  9.0,4.0
# From MPC 79866
P/2011 FR143 (Lemmon),e,15.9757,190.9492,349.9316,6.863633,0.0548117,0.45065886,233.9673,10/26.0/2022,2000,g 14.0,2.0
# From MPC 82317
P/2011 JB15 (Spacewatch-Boattini),e,19.1463,153.5883,111.0482,7.366280,0.0492983,0.31596863,194.0030,10/26.0/2022,2000,g  9.0,4.0
# From MPC 87913
P/2011 N1 (ASH),e,35.7667,77.5777,330.3876,6.244600,0.0631607,0.54502044,240.5203,10/26.0/2022,2000,g 11.5,4.0
# From MPC 75714
P/2011 NO1 (Elenin),e,15.2445,295.8270,263.7080,5.531949,0.0757507,0.77460999,326.1374,10/26.0/2022,2000,g 15.0,4.0
# From MPEC 2022-ED3
P/2011 P1 (McNaught),e,5.6609,4.2313,349.1425,7.459303,0.0483790,0.32765607,216.1845,10/26.0/2022,2000,g  9.0,4.0
# From MPEC 2022-HC2
P/2011 S1 (Gibbs),e,2.6874,218.8287,192.4980,8.583210,0.0391949,0.20149904,117.3510,10/26.0/2022,2000,g  8.0,4.0
# From MPC 79022
P/2011 UA134 (Spacewatch-PANSTARRS),e,10.4404,40.3986,32.4021,5.609692,0.0741815,0.62977652,297.3140,10/26.0/2022,2000,g 17.5,4.0
# From MPC 77406
P/2011 V1 (Boattini),e,7.3749,46.7830,269.3803,3.857173,0.1301069,0.55009787,193.1673,10/26.0/2022,2000,g 15.5,4.0
# From MPC 82718
P/2011 W1 (PANSTARRS),e,3.7186,161.7848,282.7807,4.666099,0.0977852,0.28803528,25.4348,10/26.0/2022,2000,g 11.5,4.0
# From MPC 79342
P/2011 Y2 (Boattini),e,6.3776,309.3295,131.9486,6.238030,0.0632605,0.71027989,245.9335,10/26.0/2022,2000,g 15.0,4.0
# From MPEC 2022-K19
P/2012 B1 (PANSTARRS),e,7.6101,36.2166,162.3836,6.531800,0.0590411,0.40897570,200.4246,10/26.0/2022,2000,g  9.0,4.0
# From MPC 78590
P/2012 C3 (PANSTARRS),e,9.0920,135.3677,344.9542,9.748681,0.0323806,0.63011148,359.9758,10/06.0/2011,2000,g 13.0,4.0
# From MPC 84931
